KUIPER-00157            
1 65970U 25228Z   25324.46199852  .00038586  00000+0  11269-2 0  9996
2 65970  51.8774 127.9920 0005494 296.6721  63.3702 15.34924653  6993
